[{"OBJECT_NAME":"YUNYAO-1 48","OBJECT_ID":"2025-059F","EPOCH":"2026-03-09T22:24:05.789376","MEAN_MOTION":15.10574052,"ECCENTRICITY":0.00165064,"INCLINATION":97.6074,"RA_OF_ASC_NODE":250.9983,"ARG_OF_PERICENTER":137.6901,"MEAN_ANOMALY":222.5605,"EPHEMERIS_TYPE":0,"CLASSIFICATION_TYPE":"U","NORAD_CAT_ID":63349,"ELEMENT_SET_NO":999,"REV_AT_EPOCH":5331,"BSTAR":0.00030523847,"MEAN_MOTION_DOT":4.989e-5,"MEAN_MOTION_DDOT":0},{"OBJECT_NAME":"STARLINK-35023","OBJECT_ID":"2025-184G","EPOCH":"2026-03-09T17:12:56.350368","MEAN_MOTION":15.05647042,"ECCENTRICITY":0.00010549,"INCLINATION":97.6019,"RA_OF_ASC_NODE":122.6676,"ARG_OF_PERICENTER":93.352,"MEAN_ANOMALY":266.7828,"EPHEMERIS_TYPE":0,"CLASSIFICATION_TYPE":"U","NORAD_CAT_ID":65279,"ELEMENT_SET_NO":999,"REV_AT_EPOCH":3130,"BSTAR":0.00019345439,"MEAN_MOTION_DOT":2.731e-5,"MEAN_MOTION_DDOT":0}]
